{
  "norad_id": 60356,
  "name": "STARLINK-32278",
  "history": [
    {
      "epoch": "2026-03-28T18:24:38.304864Z",
      "apogee_km": 476.05391168854385,
      "perigee_km": 474.4045805677515,
      "latitude_deg": 3.139408662584305e-05,
      "longitude_deg": 118.97818578718602,
      "height_km": 476.1340816868469,
      "semi_major_axis_km": 6853.366246128147,
      "eccentricity": 0.00012033,
      "inclination_deg": 53.1605,
      "raan_deg": 221.3206,
      "arg_perigee_deg": 90.4601,
      "mean_anomaly_deg": 269.6538,
      "mean_motion_rev_day": 15.30195252
    },
    {
      "epoch": "2026-03-30T01:45:42.589440Z",
      "apogee_km": 476.12990067543706,
      "perigee_km": 474.3669358104489,
      "latitude_deg": -8.550429955148158e-06,
      "longitude_deg": 1.356756500694357,
      "height_km": 476.1528970415246,
      "semi_major_axis_km": 6853.385418242943,
      "eccentricity": 0.00012862,
      "inclination_deg": 53.1604,
      "raan_deg": 215.2546,
      "arg_perigee_deg": 90.4151,
      "mean_anomaly_deg": 269.6997,
      "mean_motion_rev_day": 15.30188831
    },
    {
      "epoch": "2026-03-30T14:18:08.508384Z",
      "apogee_km": 475.96483872114186,
      "perigee_km": 474.55166861983525,
      "latitude_deg": -3.30362609773247e-05,
      "longitude_deg": 170.3063218710487,
      "height_km": 476.3702390693559,
      "semi_major_axis_km": 6853.395253670488,
      "eccentricity": 0.0001031,
      "inclination_deg": 53.1611,
      "raan_deg": 212.8272,
      "arg_perigee_deg": 107.5795,
      "mean_anomaly_deg": 252.5318,
      "mean_motion_rev_day": 15.30185537
    },
    {
      "epoch": "2026-03-30T17:26:14.742528Z",
      "apogee_km": 476.190156772459,
      "perigee_km": 474.3147952762383,
      "latitude_deg": 2.0630557913612838e-05,
      "longitude_deg": 122.54443385854641,
      "height_km": 476.38133289262254,
      "semi_major_axis_km": 6853.389476024348,
      "eccentricity": 0.00013682,
      "inclination_deg": 53.1606,
      "raan_deg": 212.22,
      "arg_perigee_deg": 104.2496,
      "mean_anomaly_deg": 255.8657,
      "mean_motion_rev_day": 15.30187472
    },
    {
      "epoch": "2026-03-31T01:16:30.713664Z",
      "apogee_km": 476.22037785251086,
      "perigee_km": 474.31773526308916,
      "latitude_deg": 1.7215075071170797e-05,
      "longitude_deg": 3.1393995379738002,
      "height_km": 476.48414361744534,
      "semi_major_axis_km": 6853.4060565578,
      "eccentricity": 0.00013881,
      "inclination_deg": 53.1611,
      "raan_deg": 210.7034,
      "arg_perigee_deg": 109.462,
      "mean_anomaly_deg": 250.6531,
      "mean_motion_rev_day": 15.30181919
    },
    {
      "epoch": "2026-04-01T07:03:31.753728Z",
      "apogee_km": 475.3938515775899,
      "perigee_km": 475.16768879117353,
      "latitude_deg": 8.837701663605995e-06,
      "longitude_deg": -90.59870851353352,
      "height_km": 476.2914199736828,
      "semi_major_axis_km": 6853.417770184381,
      "eccentricity": 1.65e-05,
      "inclination_deg": 53.1622,
      "raan_deg": 204.9428,
      "arg_perigee_deg": 191.8312,
      "mean_anomaly_deg": 168.2685,
      "mean_motion_rev_day": 15.30177996
    }
  ]
}